{"type": "FeatureCollection", "crs": {"type": "name", "properties": {"name": "EPSG:4326"}}, "features": [{"type": "Feature", "geometry": {"type": "Polygon", "coordinates": [[[-2.16199312709251, 53.3998554457323], [-2.16045365882723, 53.3980629808376], [-2.1601009857, 53.3982112619329], [-2.15965401537705, 53.3977979833928], [-2.15925933054959, 53.3980524849457], [-2.15871637876186, 53.3976325032083], [-2.15767153122464, 53.3979168842649], [-2.15614306396362, 53.3988205343319], [-2.15551862596365, 53.3991457017994], [-2.15608878174726, 53.3996424019869], [-2.15557681620428, 53.4000013316295], [-2.15451953624892, 53.3992486896979], [-2.1540752085539, 53.3994486218616], [-2.1529134496755, 53.3986004258362], [-2.15274315912213, 53.3984503904005], [-2.15355169164586, 53.3975474443158], [-2.15646131126956, 53.3969354789242], [-2.15789024689251, 53.3963184128114], [-2.15993787819076, 53.3962647189057], [-2.16240922314041, 53.3964394579151], [-2.16267433218372, 53.3964816568998], [-2.16276648373738, 53.396484425416], [-2.16335042147225, 53.3958215542408], [-2.16409762742756, 53.395221373616], [-2.165270705455, 53.3946203516671], [-2.16635976849825, 53.3954174443334], [-2.16669646909614, 53.3960678997903], [-2.16693051548101, 53.3964345886622], [-2.16529670741421, 53.3973764730909], [-2.16504174788941, 53.3976318019691], [-2.16422956608836, 53.3976149471603], [-2.16333996067177, 53.3990720674136], [-2.1629580268539, 53.4001582623848], [-2.16199312709251, 53.3998554457323]]]}, "properties": {"LSOA21CD": "E01005760", "LSOA21NM": "Stockport 023B"}}, {"type": "Feature", "geometry": {"type": "Polygon", "coordinates": [[[-2.15738442599393, 53.4030793085156], [-2.15582021060264, 53.4009423397161], [-2.15538910697838, 53.4005349886919], [-2.1540752085539, 53.3994486218616], [-2.15451953624892, 53.3992486896979], [-2.15557681620428, 53.4000013316295], [-2.15608878174726, 53.3996424019869], [-2.15551862596365, 53.3991457017994], [-2.15614306396362, 53.3988205343319], [-2.15767153122464, 53.3979168842649], [-2.15871637876186, 53.3976325032083], [-2.15925933054959, 53.3980524849457], [-2.15965401537705, 53.3977979833928], [-2.1601009857, 53.3982112619329], [-2.16045365882723, 53.3980629808376], [-2.16199312709251, 53.3998554457323], [-2.1629580268539, 53.4001582623848], [-2.1629132154344, 53.401413151557], [-2.16353795390184, 53.4015887909144], [-2.1640175136586, 53.4013498571163], [-2.16342668049853, 53.4009983244384], [-2.16403079532777, 53.4002544573573], [-2.16558810218612, 53.4008296082489], [-2.16635037337903, 53.401557926944], [-2.16669770354114, 53.4018616927779], [-2.16655072066745, 53.4018958891472], [-2.16444870702846, 53.4023308138038], [-2.16234409781392, 53.4028181798771], [-2.15872615471154, 53.4052129289262], [-2.15738442599393, 53.4030793085156]]]}, "properties": {"LSOA21CD": "E01005766", "LSOA21NM": "Stockport 014C"}}, {"type": "Feature", "geometry": {"type": "Polygon", "coordinates": [[[-2.14807394369551, 53.3943865406507], [-2.14830236936353, 53.393774319851], [-2.14749843284706, 53.393100359696], [-2.14816321826788, 53.3928927315738], [-2.15175614310039, 53.3925732690553], [-2.15183488700811, 53.3932002184079], [-2.15217722637944, 53.3931724484675], [-2.15220809740825, 53.3937464619312], [-2.1518298922263, 53.3937645970509], [-2.15236732011833, 53.394367878822], [-2.15284833365863, 53.3943133235329], [-2.15263299044753, 53.392965319247], [-2.15315614002473, 53.3929325154587], [-2.15345179167047, 53.3942778803651], [-2.15509216367004, 53.3944464338663], [-2.15516526091043, 53.394963681902], [-2.15467597879294, 53.3949868559681], [-2.15416469291317, 53.3955803422082], [-2.15512923732597, 53.3957486059467], [-2.15476199044565, 53.3959651850224], [-2.15577894089044, 53.396406014675], [-2.15577048615747, 53.3968589207965], [-2.15646131126956, 53.3969354789242], [-2.15355169164586, 53.3975474443158], [-2.15274315912213, 53.3984503904005], [-2.15011145241794, 53.3962789434441], [-2.14981386336087, 53.3960233043161], [-2.14798174642763, 53.3944123527566], [-2.14807394369551, 53.3943865406507]]]}, "properties": {"LSOA21CD": "E01005797", "LSOA21NM": "Stockport 023C"}}, {"type": "Feature", "geometry": {"type": "Polygon", "coordinates": [[[-2.14798174642763, 53.3944123527566], [-2.1457745895261, 53.3925227330163], [-2.14569091320246, 53.3924580002543], [-2.14521113463726, 53.392124010102], [-2.1427600986288, 53.3909257685209], [-2.14242912165664, 53.3907722172727], [-2.14383871752529, 53.3897971232015], [-2.14504993011057, 53.3892713462705], [-2.14677990991012, 53.3895276531488], [-2.14751949320504, 53.3889359483128], [-2.15004616162971, 53.3898470162415], [-2.15073420659278, 53.3896314969218], [-2.152387106146, 53.3898128371871], [-2.15029757939351, 53.3884847365822], [-2.15033240855351, 53.3867690895632], [-2.15112600690646, 53.3866295326072], [-2.15109021637271, 53.3861629672305], [-2.15166428742057, 53.3861193307217], [-2.15170577229468, 53.3855347004327], [-2.15244802925456, 53.3853861288472], [-2.15237379648011, 53.3846785209809], [-2.152813228101, 53.3842995972616], [-2.15248422603982, 53.3840965439804], [-2.15320227337569, 53.3839670813434], [-2.15332800921578, 53.384782840006], [-2.15408375341546, 53.3853630888699], [-2.1537487074653, 53.3858276694601], [-2.15311447946279, 53.3856944554948], [-2.15316291024543, 53.3860087220877], [-2.15419102822027, 53.3859943402628], [-2.15436969693687, 53.3878110040214], [-2.15579119043094, 53.3879549535397], [-2.15697656823017, 53.3880272433395], [-2.1569143344163, 53.3884204466977], [-2.15812731947898, 53.3886620727402], [-2.15735744623983, 53.3892760199537], [-2.15670921806884, 53.3892869298317], [-2.15661758505992, 53.3887805022951], [-2.15585082896824, 53.3887994816088], [-2.15585181087129, 53.3890691447423], [-2.15417301893546, 53.389030280542], [-2.15402156669, 53.3905350777579], [-2.15493208810566, 53.3911587227853], [-2.1543473008865, 53.391415903878], [-2.15304502497633, 53.3909963987746], [-2.1530177563745, 53.3911167809184], [-2.15297368335015, 53.3915218292402], [-2.15292979571582, 53.3918093740445], [-2.15280586327129, 53.3921632670701], [-2.15341214311991, 53.392509770919], [-2.15315614002473, 53.3929325154587], [-2.15263299044753, 53.392965319247], [-2.15284833365863, 53.3943133235329], [-2.15236732011833, 53.394367878822], [-2.1518298922263, 53.3937645970509], [-2.15220809740825, 53.3937464619312], [-2.15217722637944, 53.3931724484675], [-2.15183488700811, 53.3932002184079], [-2.15175614310039, 53.3925732690553], [-2.14816321826788, 53.3928927315738], [-2.14749843284706, 53.393100359696], [-2.14830236936353, 53.393774319851], [-2.14807394369551, 53.3943865406507], [-2.14798174642763, 53.3944123527566]]]}, "properties": {"LSOA21CD": "E01005798", "LSOA21NM": "Stockport 027A"}}, {"type": "Feature", "geometry": {"type": "Polygon", "coordinates": [[[-2.13761731659576, 53.3889265015007], [-2.13595008398256, 53.3884943904579], [-2.13567989966814, 53.3884061591479], [-2.13290954768399, 53.3872641828421], [-2.13289611836041, 53.3872584090973], [-2.12797034927121, 53.3848747254799], [-2.12876264232686, 53.3840526490439], [-2.13098675240737, 53.3821125500854], [-2.13101916902651, 53.3820894502979], [-2.13122647838609, 53.3819416691466], [-2.13309504997806, 53.3804504562186], [-2.13458534258047, 53.3781272253549], [-2.13907440546143, 53.3790161921165], [-2.14454394428543, 53.3801181703804], [-2.1429918652627, 53.3822811684173], [-2.14279727419488, 53.3828377717786], [-2.14224431165197, 53.3839401381219], [-2.14212506772047, 53.3840734085655], [-2.14114892007359, 53.3851643573418], [-2.14026422923392, 53.3850167150972], [-2.13993029512234, 53.3846286113554], [-2.13921843191595, 53.3852980872853], [-2.14153883545219, 53.3862804941788], [-2.14020725013424, 53.3868503167137], [-2.1395692511489, 53.3869192923125], [-2.13853996104451, 53.3864767299279], [-2.13804640546293, 53.3869282623604], [-2.13901898913477, 53.3873525220829], [-2.13878619754732, 53.3876121915743], [-2.13917555479676, 53.3877748465756], [-2.13869555261974, 53.388198393597], [-2.13980831983712, 53.3887195067475], [-2.1409675994037, 53.3886150924676], [-2.14209628707588, 53.3890852319061], [-2.14383871752529, 53.3897971232015], [-2.14242912165664, 53.3907722172727], [-2.14039075126973, 53.389818348495], [-2.13843607634435, 53.3891359543044], [-2.13761731659576, 53.3889265015007]]]}, "properties": {"LSOA21CD": "E01005801", "LSOA21NM": "Stockport 027B"}}, {"type": "Feature", "geometry": {"type": "Polygon", "coordinates": [[[-2.16063058552613, 53.4077220036457], [-2.15967692208839, 53.4068066538408], [-2.1587460996314, 53.4052460174148], [-2.15872615471154, 53.4052129289262], [-2.16234409781392, 53.4028181798771], [-2.16444870702846, 53.4023308138038], [-2.16655072066745, 53.4018958891472], [-2.16669770354114, 53.4018616927779], [-2.16950743432336, 53.4012562148398], [-2.16993062518183, 53.40117186719], [-2.17051604866386, 53.4021234082479], [-2.17032693727283, 53.4026493657742], [-2.17110631127647, 53.4028393481415], [-2.17198568785796, 53.4025413356074], [-2.17216108833153, 53.4028349930923], [-2.17217253700704, 53.4031712592877], [-2.1714025098333, 53.403337651216], [-2.17190512487028, 53.404235629523], [-2.1714605552122, 53.4044989756348], [-2.17106664803346, 53.4046480586203], [-2.17080862583422, 53.4043769804163], [-2.17117062245616, 53.4040500100404], [-2.17070815166688, 53.4041066641078], [-2.17101860793764, 53.4037889543561], [-2.17052258447239, 53.4038648012765], [-2.17036502325317, 53.4035763273329], [-2.17014581956893, 53.4032687818047], [-2.16961163526131, 53.4033695100315], [-2.1691900101919, 53.4028960318921], [-2.16728330451059, 53.4030725570594], [-2.16735040092955, 53.4026159151022], [-2.16679883818784, 53.402641335921], [-2.16551341919353, 53.4029253311632], [-2.1660337382945, 53.4037869350104], [-2.16754582168251, 53.4035595877654], [-2.16766763028983, 53.4037852000648], [-2.16753250564826, 53.4038131736072], [-2.1674365140119, 53.40414303902], [-2.16791680879308, 53.4043070651212], [-2.16699030312062, 53.4048046549567], [-2.1673584056389, 53.4050138456069], [-2.16807798552134, 53.4048632278167], [-2.1683648889462, 53.4056301065299], [-2.16859034595308, 53.4063030620807], [-2.16882351228124, 53.4070103957519], [-2.17127411989574, 53.4066922948258], [-2.17156317045465, 53.4075008327095], [-2.17244358781075, 53.4074711369611], [-2.17327613446055, 53.4080887133448], [-2.17188655999482, 53.4088100006696], [-2.16562346505187, 53.4092170644389], [-2.16283866865005, 53.4095174323882], [-2.16139803456117, 53.4082993988319], [-2.16063058552613, 53.4077220036457]]]}, "properties": {"LSOA21CD": "E01005822", "LSOA21NM": "Stockport 016D"}}, {"type": "Feature", "geometry": {"type": "Polygon", "coordinates": [[[-2.14637474325787, 53.3965927454103], [-2.14223008745616, 53.3964413177095], [-2.14139671761549, 53.3964692875332], [-2.14066887670074, 53.3965124712024], [-2.1406077141047, 53.3961095408712], [-2.13855238896218, 53.3962061166168], [-2.13877797771522, 53.39544971054], [-2.13812246104671, 53.3951220253515], [-2.13826082797267, 53.3945456087578], [-2.13745135624063, 53.3945027920532], [-2.13923295950626, 53.3933111625163], [-2.13879855933828, 53.3930187824928], [-2.13915812885788, 53.3928426932588], [-2.13993235681597, 53.3919555107139], [-2.14062294700491, 53.3922320678798], [-2.1427600986288, 53.3909257685209], [-2.14521113463726, 53.392124010102], [-2.14569091320246, 53.3924580002543], [-2.1457745895261, 53.3925227330163], [-2.14798174642763, 53.3944123527566], [-2.14981386336087, 53.3960233043161], [-2.14885538965851, 53.3963497608652], [-2.14637474325787, 53.3965927454103]]]}, "properties": {"LSOA21CD": "E01005825", "LSOA21NM": "Stockport 019A"}}, {"type": "Feature", "geometry": {"type": "Polygon", "coordinates": [[[-2.13453942730487, 53.3961852547419], [-2.13428423600864, 53.395807252038], [-2.13369535052432, 53.3959361857834], [-2.13343657376174, 53.3956714547574], [-2.13391782759132, 53.3955230294263], [-2.133690691525, 53.3950607216583], [-2.13286720008522, 53.3942912165625], [-2.13314455752578, 53.3932136548517], [-2.13367694847595, 53.3928603959372], [-2.13273347752, 53.392033469211], [-2.13273873195745, 53.3916133569664], [-2.13363474763316, 53.3909835338209], [-2.13437642146353, 53.390200981929], [-2.13609282210665, 53.3888840658582], [-2.1356933948644, 53.3886955495055], [-2.13595008398256, 53.3884943904579], [-2.13761731659576, 53.3889265015007], [-2.13843607634435, 53.3891359543044], [-2.14039075126973, 53.389818348495], [-2.14242912165664, 53.3907722172727], [-2.1427600986288, 53.3909257685209], [-2.14062294700491, 53.3922320678798], [-2.13993235681597, 53.3919555107139], [-2.13915812885788, 53.3928426932588], [-2.13879855933828, 53.3930187824928], [-2.13923295950626, 53.3933111625163], [-2.13745135624063, 53.3945027920532], [-2.13760385668546, 53.3949057095546], [-2.13705401373066, 53.3955079353682], [-2.13612374722979, 53.3953732858115], [-2.13536039546432, 53.3961616749714], [-2.13453942730487, 53.3961852547419]]]}, "properties": {"LSOA21CD": "E01005830", "LSOA21NM": "Stockport 027E"}}, {"type": "Feature", "geometry": {"type": "Polygon", "coordinates": [[[-2.1304769592046, 53.3923819685106], [-2.13011044338381, 53.3919107266953], [-2.12913045582091, 53.392307839985], [-2.12799246039908, 53.3922892527301], [-2.12875122777219, 53.3920944809291], [-2.12765321904378, 53.390414402003], [-2.12811551867107, 53.3899592334465], [-2.12948264599612, 53.390086482078], [-2.12959449129809, 53.3896956298085], [-2.13076094462789, 53.3897644391458], [-2.13103831580432, 53.389395696608], [-2.1305661769772, 53.3884549588263], [-2.12897352366883, 53.3882741147646], [-2.12947754420946, 53.3874074277143], [-2.12731120568094, 53.3869126250213], [-2.12721293716665, 53.386573510749], [-2.12778049843118, 53.3862299951278], [-2.12870491642958, 53.3865178002186], [-2.1293277036663, 53.3861869727563], [-2.12915861438371, 53.3857953354132], [-2.12712859503228, 53.3858880037554], [-2.12536373654135, 53.3855184578503], [-2.12480798113617, 53.3856988077476], [-2.12418689131012, 53.3846270918624], [-2.12525548542262, 53.3842262881844], [-2.1264097751098, 53.3838328542047], [-2.12797034927121, 53.3848747254799], [-2.13289611836041, 53.3872584090973], [-2.13290954768399, 53.3872641828421], [-2.13567989966814, 53.3884061591479], [-2.13595008398256, 53.3884943904579], [-2.1356933948644, 53.3886955495055], [-2.13609282210665, 53.3888840658582], [-2.13437642146353, 53.390200981929], [-2.13363474763316, 53.3909835338209], [-2.13273873195745, 53.3916133569664], [-2.13273347752, 53.392033469211], [-2.1304769592046, 53.3923819685106]]]}, "properties": {"LSOA21CD": "E01005831", "LSOA21NM": "Stockport 027F"}}, {"type": "Feature", "geometry": {"type": "Polygon", "coordinates": [[[-2.10865639794507, 53.3826030089014], [-2.1077665490825, 53.3823228031409], [-2.10801849938814, 53.3819875136259], [-2.10705746653103, 53.3815033100645], [-2.10775860407113, 53.3810560013432], [-2.1082288367997, 53.3813003801444], [-2.10879946115933, 53.3811688670397], [-2.1088306828309, 53.3805453530356], [-2.11041008836693, 53.3800895992403], [-2.1094861272035, 53.3792060767883], [-2.10912548526953, 53.3786026933852], [-2.11014214042727, 53.3777998409654], [-2.11172828936992, 53.3773376906372], [-2.11089950462236, 53.376058920476], [-2.11376045884232, 53.3754718878154], [-2.11349916556736, 53.3747215622004], [-2.11325976435012, 53.3737016341291], [-2.11310234848418, 53.3727250066003], [-2.11353873167425, 53.372974914795], [-2.11741852134586, 53.3750067715737], [-2.11663987116183, 53.3752402274333], [-2.11761738706301, 53.3765261287683], [-2.11692304537501, 53.3776979964443], [-2.1180689967129, 53.378533541653], [-2.11770952327365, 53.3788643018056], [-2.11686336354951, 53.3787781686317], [-2.11643299384826, 53.3776542848586], [-2.11456379524203, 53.3779789114421], [-2.11433893032263, 53.3790730145669], [-2.11548505978384, 53.37932612188], [-2.11531258107759, 53.3796462952933], [-2.1159447009405, 53.3795969156211], [-2.11737983982959, 53.3801574909547], [-2.11833446298622, 53.3808229241988], [-2.11856842936448, 53.3812449899884], [-2.11778343031469, 53.3822197353108], [-2.11740409481196, 53.3827429750244], [-2.11675437887585, 53.3825687643166], [-2.11477472593807, 53.3837141767949], [-2.11501597809673, 53.384045704368], [-2.11315332537291, 53.3841975364328], [-2.11283404138202, 53.3844474215789], [-2.11309948785318, 53.3852236160642], [-2.11220759195937, 53.38546324629], [-2.11240950418717, 53.3876536103868], [-2.11233749016627, 53.3877646951988], [-2.11054567831963, 53.387870030641], [-2.10990952405885, 53.3874572580298], [-2.11080162324677, 53.3868561570635], [-2.10926890850684, 53.3857310260662], [-2.10891505788358, 53.3856976491578], [-2.10813564890591, 53.3837842507817], [-2.10898124251338, 53.3832008286207], [-2.10852100510081, 53.3829894019066], [-2.10865639794507, 53.3826030089014]]]}, "properties": {"LSOA21CD": "E01005836", "LSOA21NM": "Stockport 031B"}}, {"type": "Feature", "geometry": {"type": "Polygon", "coordinates": [[[-2.12797034927121, 53.3848747254799], [-2.1264097751098, 53.3838328542047], [-2.12525548542262, 53.3842262881844], [-2.12418689131012, 53.3846270918624], [-2.12314680039714, 53.3845264578607], [-2.12207472763548, 53.3836729129552], [-2.12151234012375, 53.3836277470018], [-2.12149404882128, 53.3832456861902], [-2.12039974670249, 53.383650577786], [-2.12011068085555, 53.3833845565437], [-2.11939903461269, 53.3836425614688], [-2.11760438980143, 53.3833197401911], [-2.11801397699448, 53.382775122557], [-2.11778343031469, 53.3822197353108], [-2.11856842936448, 53.3812449899884], [-2.11833446298622, 53.3808229241988], [-2.12041059441184, 53.3803749244899], [-2.12000768575663, 53.3814608568274], [-2.1203510892344, 53.3813270792911], [-2.12234240049164, 53.3803355188764], [-2.12318741437121, 53.3799534070839], [-2.12314787904933, 53.3791522689016], [-2.12210278050733, 53.3791879776174], [-2.12214690443091, 53.3796012408387], [-2.12118280830881, 53.3797341593584], [-2.1204551753353, 53.3795211633553], [-2.12077465585816, 53.3791134488073], [-2.12144395995313, 53.3791147963029], [-2.12022298999031, 53.3784073982782], [-2.1213007088984, 53.3783249977462], [-2.12081417936117, 53.3776837107611], [-2.12156322821009, 53.3761544280626], [-2.1220994809218, 53.3761794024511], [-2.12250680942822, 53.3768673794178], [-2.12585847308452, 53.3774062155759], [-2.12519137008894, 53.377717329942], [-2.12659019266942, 53.3782634504045], [-2.1267570320453, 53.3787666379823], [-2.1280418705211, 53.3794125526529], [-2.12783279260251, 53.380429263802], [-2.12717843494249, 53.3808063779591], [-2.12488035539388, 53.380855269596], [-2.12516739300488, 53.381277132271], [-2.12684188909725, 53.3823100376698], [-2.12752575264795, 53.3822765546923], [-2.12697554115065, 53.3828650601632], [-2.12597123202769, 53.3825427041038], [-2.12637307303754, 53.3831427564269], [-2.1271517896773, 53.3830150799034], [-2.12662314361241, 53.383330774358], [-2.12737439320007, 53.3841130231277], [-2.12800473114002, 53.3837967289191], [-2.12816979643447, 53.3841661167118], [-2.12876264232686, 53.3840526490439], [-2.12797034927121, 53.3848747254799]]]}, "properties": {"LSOA21CD": "E01005838", "LSOA21NM": "Stockport 031C"}}, {"type": "Feature", "geometry": {"type": "Polygon", "coordinates": [[[-2.12816979643447, 53.3841661167118], [-2.12800473114002, 53.3837967289191], [-2.12737439320007, 53.3841130231277], [-2.12662314361241, 53.383330774358], [-2.1271517896773, 53.3830150799034], [-2.12637307303754, 53.3831427564269], [-2.12597123202769, 53.3825427041038], [-2.12697554115065, 53.3828650601632], [-2.12752575264795, 53.3822765546923], [-2.12684188909725, 53.3823100376698], [-2.12516739300488, 53.381277132271], [-2.12488035539388, 53.380855269596], [-2.12717843494249, 53.3808063779591], [-2.12783279260251, 53.380429263802], [-2.1280418705211, 53.3794125526529], [-2.1267570320453, 53.3787666379823], [-2.12659019266942, 53.3782634504045], [-2.12519137008894, 53.377717329942], [-2.12585847308452, 53.3774062155759], [-2.12250680942822, 53.3768673794178], [-2.1220994809218, 53.3761794024511], [-2.12156322821009, 53.3761544280626], [-2.12081417936117, 53.3776837107611], [-2.1213007088984, 53.3783249977462], [-2.12022298999031, 53.3784073982782], [-2.12144395995313, 53.3791147963029], [-2.12077465585816, 53.3791134488073], [-2.1204551753353, 53.3795211633553], [-2.12118280830881, 53.3797341593584], [-2.12214690443091, 53.3796012408387], [-2.12210278050733, 53.3791879776174], [-2.12314787904933, 53.3791522689016], [-2.12318741437121, 53.3799534070839], [-2.12234240049164, 53.3803355188764], [-2.1203510892344, 53.3813270792911], [-2.12000768575663, 53.3814608568274], [-2.12041059441184, 53.3803749244899], [-2.11833446298622, 53.3808229241988], [-2.11737983982959, 53.3801574909547], [-2.1159447009405, 53.3795969156211], [-2.11531258107759, 53.3796462952933], [-2.11548505978384, 53.37932612188], [-2.11433893032263, 53.3790730145669], [-2.11456379524203, 53.3779789114421], [-2.11643299384826, 53.3776542848586], [-2.11686336354951, 53.3787781686317], [-2.11770952327365, 53.3788643018056], [-2.1180689967129, 53.378533541653], [-2.11692304537501, 53.3776979964443], [-2.11761738706301, 53.3765261287683], [-2.11663987116183, 53.3752402274333], [-2.11741852134586, 53.3750067715737], [-2.12085436513528, 53.3754673447269], [-2.12369053434397, 53.3759617633536], [-2.12813713410474, 53.3768320486357], [-2.12850902207352, 53.3769048174015], [-2.13458534258047, 53.3781272253549], [-2.13309504997806, 53.3804504562186], [-2.13122647838609, 53.3819416691466], [-2.13101916902651, 53.3820894502979], [-2.13098675240737, 53.3821125500854], [-2.12876264232686, 53.3840526490439], [-2.12816979643447, 53.3841661167118]]]}, "properties": {"LSOA21CD": "E01005840", "LSOA21NM": "Stockport 031D"}}, {"type": "Feature", "geometry": {"type": "Polygon", "coordinates": [[[-2.10705746653103, 53.3815033100645], [-2.10631491538658, 53.3810288829394], [-2.10584186962205, 53.3812721060029], [-2.10496089442129, 53.3811469136624], [-2.10471866435828, 53.3808006998965], [-2.10530140605, 53.3800670457393], [-2.10625984069855, 53.3798346504202], [-2.10622969659875, 53.3794806837468], [-2.10648466073693, 53.379376973864], [-2.10599997652786, 53.3789046259739], [-2.1066090794176, 53.3785212770845], [-2.10619409671677, 53.3775585373668], [-2.10625559634243, 53.3773173579896], [-2.10867309558837, 53.3765785912656], [-2.10823479924081, 53.3761037564288], [-2.10822904323093, 53.3745652409292], [-2.1045740719182, 53.3744825090527], [-2.10462747943529, 53.3739777788045], [-2.10499773134329, 53.3739981745436], [-2.10599832911391, 53.3728770924196], [-2.10610934982528, 53.3725091328819], [-2.10653594014194, 53.3724822038234], [-2.10562666954231, 53.3719379996743], [-2.10617007629951, 53.3716719121957], [-2.10462337903585, 53.3703124237441], [-2.10523970555563, 53.3698245046391], [-2.1055263197129, 53.3700365519741], [-2.10639174095129, 53.3692533608565], [-2.10753135028081, 53.3697632343273], [-2.10819868159846, 53.3693918346216], [-2.11137406445669, 53.3710428120431], [-2.11093559542739, 53.3702782364469], [-2.11141998982729, 53.3691464465638], [-2.11097562616984, 53.3685681712712], [-2.1112169730798, 53.3678898853643], [-2.11266349630078, 53.368037162595], [-2.11306499164825, 53.3676403888472], [-2.11351844047492, 53.3676869585397], [-2.1129750175244, 53.3716593017596], [-2.11310234848418, 53.3727250066003], [-2.11325976435012, 53.3737016341291], [-2.11349916556736, 53.3747215622004], [-2.11376045884232, 53.3754718878154], [-2.11089950462236, 53.376058920476], [-2.11172828936992, 53.3773376906372], [-2.11014214042727, 53.3777998409654], [-2.10912548526953, 53.3786026933852], [-2.1094861272035, 53.3792060767883], [-2.11041008836693, 53.3800895992403], [-2.1088306828309, 53.3805453530356], [-2.10879946115933, 53.3811688670397], [-2.1082288367997, 53.3813003801444], [-2.10775860407113, 53.3810560013432], [-2.10705746653103, 53.3815033100645]]]}, "properties": {"LSOA21CD": "E01005841", "LSOA21NM": "Stockport 035D"}}, {"type": "Feature", "geometry": {"type": "Polygon", "coordinates": [[[-2.17698413958867, 53.4270158520831], [-2.17594056494436, 53.4257053788935], [-2.17536915189437, 53.4258296027608], [-2.17453097665172, 53.4253445934289], [-2.17241469175959, 53.4258624680323], [-2.17228173613771, 53.4264705424762], [-2.17185404570055, 53.42672234666], [-2.17024999574378, 53.425541044127], [-2.16903027467376, 53.425829408642], [-2.16820840978693, 53.4250843019467], [-2.16871809286658, 53.4235501081526], [-2.16906515559737, 53.4222907709664], [-2.17012433991476, 53.4223466817177], [-2.17248140340698, 53.4219929746912], [-2.1753280183928, 53.4211578046695], [-2.1765397504494, 53.4207962122059], [-2.17839660366589, 53.4202841459125], [-2.17950380224559, 53.4215474299757], [-2.17958358421608, 53.4216406107469], [-2.18173475901059, 53.4238834006551], [-2.18172898754642, 53.423885760856], [-2.17885815056291, 53.425349957308], [-2.1779509019627, 53.4242728974473], [-2.17756499957785, 53.4243698297921], [-2.17714522294948, 53.4239522901486], [-2.17611831048137, 53.4242422982063], [-2.1755341329539, 53.4239381614014], [-2.17479014617281, 53.4241247775095], [-2.17497171924275, 53.4243671920425], [-2.1753803494381, 53.4249328680948], [-2.17611532116106, 53.4247359071067], [-2.17764691310135, 53.4254049532775], [-2.17676922048203, 53.4256396826317], [-2.17698413958867, 53.4270158520831]]]}, "properties": {"LSOA21CD": "E01005863", "LSOA21NM": "Stockport 006A"}}, {"type": "Feature", "geometry": {"type": "Polygon", "coordinates": [[[-2.18097561350649, 53.4291168224646], [-2.18164888667863, 53.4287037881622], [-2.18194939897973, 53.4290692822807], [-2.18320037235888, 53.4305982030362], [-2.18250584510349, 53.4307946267978], [-2.18155271691501, 53.4298341241372], [-2.18020107256645, 53.430153697785], [-2.18162050487061, 53.4317872770314], [-2.18269858175761, 53.432380564896], [-2.18135224383916, 53.4321182679854], [-2.18091106790331, 53.4321971845008], [-2.18035764221351, 53.431626151698], [-2.17944629259706, 53.4307508615322], [-2.17599249564485, 53.4289747508848], [-2.17659625510974, 53.429046854219], [-2.17601350636549, 53.4288509647433], [-2.17548842400807, 53.4291244713532], [-2.17475592602116, 53.4291806748758], [-2.17462280525076, 53.4287866026909], [-2.17390822935486, 53.4289458974308], [-2.17332687742258, 53.4281811609054], [-2.17347843725134, 53.4272097657211], [-2.17303536900022, 53.4269464140272], [-2.17251555973783, 53.4271979137948], [-2.1724743767075, 53.4267751308859], [-2.17185404570055, 53.42672234666], [-2.17228173613771, 53.4264705424762], [-2.17241469175959, 53.4258624680323], [-2.17453097665172, 53.4253445934289], [-2.17536915189437, 53.4258296027608], [-2.17594056494436, 53.4257053788935], [-2.17698413958867, 53.4270158520831], [-2.17676922048203, 53.4256396826317], [-2.17764691310135, 53.4254049532775], [-2.17611532116106, 53.4247359071067], [-2.1753803494381, 53.4249328680948], [-2.17497171924275, 53.4243671920425], [-2.17479014617281, 53.4241247775095], [-2.1755341329539, 53.4239381614014], [-2.17611831048137, 53.4242422982063], [-2.17714522294948, 53.4239522901486], [-2.17756499957785, 53.4243698297921], [-2.1779509019627, 53.4242728974473], [-2.17885815056291, 53.425349957308], [-2.18172898754642, 53.423885760856], [-2.18209318286577, 53.4241845488133], [-2.18158398918213, 53.4246687040002], [-2.18009720398506, 53.425158092444], [-2.18020123632276, 53.4258598092747], [-2.17981883190151, 53.4260068377797], [-2.18090178641251, 53.4265888204325], [-2.17968345418685, 53.4270179716571], [-2.18019205542967, 53.4275863170886], [-2.18106956576305, 53.4286815959302], [-2.18097561350649, 53.4291168224646]]]}, "properties": {"LSOA21CD": "E01005866", "LSOA21NM": "Stockport 006C"}}, {"type": "Feature", "geometry": {"type": "Polygon", "coordinates": [[[-2.18741234682997, 53.436298581392], [-2.18632955323609, 53.436049699219], [-2.18573056093006, 53.4361194966281], [-2.18379780045958, 53.4352084616031], [-2.18173052884168, 53.4351119157738], [-2.18110548237217, 53.4347192780642], [-2.18031734636837, 53.4347671336521], [-2.17988773501041, 53.4345978731225], [-2.180139114018, 53.4343816603283], [-2.17902978151551, 53.4341329216477], [-2.17720273074282, 53.4331041804935], [-2.17710144127907, 53.4330356331266], [-2.1758657648058, 53.4328269495436], [-2.17465390236206, 53.433118058102], [-2.17428514997335, 53.4327742180141], [-2.17390637245319, 53.4329049447094], [-2.17370822602452, 53.4328775651827], [-2.17334420543218, 53.4327393852497], [-2.17355279551142, 53.4324564257611], [-2.17283821805761, 53.4320099131766], [-2.17055086989344, 53.4313397566168], [-2.17158057066607, 53.4307057132104], [-2.17300916203516, 53.4301923156594], [-2.17273688672095, 53.4299074265753], [-2.17348834060967, 53.4296456651251], [-2.17319882974388, 53.4293406532851], [-2.17390822935486, 53.4289458974308], [-2.17462280525076, 53.4287866026909], [-2.17475592602116, 53.4291806748758], [-2.17548842400807, 53.4291244713532], [-2.17601350636549, 53.4288509647433], [-2.17659625510974, 53.429046854219], [-2.17599249564485, 53.4289747508848], [-2.17944629259706, 53.4307508615322], [-2.18035764221351, 53.431626151698], [-2.18091106790331, 53.4321971845008], [-2.18135224383916, 53.4321182679854], [-2.18269858175761, 53.432380564896], [-2.18162050487061, 53.4317872770314], [-2.18020107256645, 53.430153697785], [-2.18155271691501, 53.4298341241372], [-2.18250584510349, 53.4307946267978], [-2.18320037235888, 53.4305982030362], [-2.18505801680389, 53.4328737749279], [-2.18675789417222, 53.4328840901392], [-2.18930758728257, 53.4321362489397], [-2.1921564977912, 53.4323696384396], [-2.19135230146047, 53.4351283061618], [-2.18879025199041, 53.4348472813686], [-2.18721915256527, 53.4352477844581], [-2.18872679860994, 53.436822944712], [-2.18835915948723, 53.4366417268388], [-2.18746183846758, 53.4366428720641], [-2.18741234682997, 53.436298581392]]]}, "properties": {"LSOA21CD": "E01005869", "LSOA21NM": "Stockport 006D"}}, {"type": "Feature", "geometry": {"type": "Polygon", "coordinates": [[[-2.14932536383825, 53.4075019186275], [-2.1492960066463, 53.4040518296833], [-2.14637874260604, 53.4039917370897], [-2.14456556097905, 53.4040941295653], [-2.14484611199478, 53.4035807547457], [-2.14288797685573, 53.4035073743429], [-2.14274447455722, 53.4036614466235], [-2.14259030095749, 53.4048313291809], [-2.14406367409129, 53.4049966573687], [-2.14419354077972, 53.4052810578401], [-2.14346509679073, 53.4053009995683], [-2.1435601419639, 53.4062079576138], [-2.14339960893733, 53.4064347141123], [-2.14237380989218, 53.4063287632661], [-2.14207041152235, 53.4057950918338], [-2.14154895958971, 53.4055531297535], [-2.14191167620508, 53.4052388393077], [-2.14151545686143, 53.4050775255657], [-2.14121566767185, 53.4053924775265], [-2.14051089806505, 53.4051315349938], [-2.14017652783273, 53.4050071962676], [-2.1392672058875, 53.4047807788083], [-2.13952047653676, 53.4044041887049], [-2.14014872158147, 53.4043398958677], [-2.14044990784688, 53.403573897588], [-2.13999107882306, 53.4034973458935], [-2.13990546458467, 53.4030747618574], [-2.13927800587932, 53.4030747482917], [-2.13913538351288, 53.4023161585872], [-2.14095248227301, 53.4022759290443], [-2.14074001939597, 53.4014820004023], [-2.14380572120361, 53.4017850067022], [-2.14413960375143, 53.4018566116596], [-2.14443743674216, 53.4015507700173], [-2.14694439533494, 53.4021832111834], [-2.14729764981323, 53.4025268011559], [-2.14707206026474, 53.4003068018789], [-2.14629686867286, 53.4001640610254], [-2.14628288077532, 53.3996979413232], [-2.14638267038213, 53.3994041547138], [-2.14689560486249, 53.3993111423823], [-2.14783173090488, 53.4000698877595], [-2.14847023254984, 53.401255596787], [-2.14901391901117, 53.4012939399083], [-2.1501779012493, 53.401086145957], [-2.15000991512595, 53.4006446821267], [-2.15112775105027, 53.4004719382832], [-2.15174003688919, 53.3995393495298], [-2.15256321590413, 53.4000157856482], [-2.15321424635133, 53.3999037163086], [-2.15350084904762, 53.4006407366032], [-2.15309843280686, 53.4008367878029], [-2.15318190348088, 53.4015359448934], [-2.15383654156514, 53.4014758932629], [-2.15594111925866, 53.4011855232874], [-2.15582021060264, 53.4009423397161], [-2.15738442599393, 53.4030793085156], [-2.15561545723373, 53.4034441712819], [-2.15551554291266, 53.4038060188085], [-2.15396307315177, 53.404201139427], [-2.15362132327061, 53.4043808998717], [-2.15438654532586, 53.4062049109435], [-2.15310362601409, 53.4067979916949], [-2.15256676618139, 53.4064936060075], [-2.15084547086572, 53.4065605710303], [-2.1502646422759, 53.4072840820794], [-2.14932536383825, 53.4075019186275]]]}, "properties": {"LSOA21CD": "E01005874", "LSOA21NM": "Stockport 019C"}}, {"type": "Feature", "geometry": {"type": "Polygon", "coordinates": [[[-2.14694439533494, 53.4021832111834], [-2.14443743674216, 53.4015507700173], [-2.14413960375143, 53.4018566116596], [-2.14380572120361, 53.4017850067022], [-2.1439817501141, 53.4007449534267], [-2.14459130675788, 53.4005229717723], [-2.14384572296265, 53.4003639962396], [-2.14308771532316, 53.3995692117632], [-2.14307667860145, 53.3985765294253], [-2.14266547744163, 53.3985770198898], [-2.14175786508228, 53.3994770966269], [-2.14083879658447, 53.3985152998938], [-2.14018413043372, 53.3986432918559], [-2.14033219839874, 53.3981685001546], [-2.13892785422338, 53.3981240480848], [-2.13889092334092, 53.3972778537172], [-2.13832752855853, 53.3971949656979], [-2.13824853268193, 53.3967954971754], [-2.14066887670074, 53.3965124712024], [-2.14139671761549, 53.3964692875332], [-2.14223008745616, 53.3964413177095], [-2.14637474325787, 53.3965927454103], [-2.14885538965851, 53.3963497608652], [-2.14981386336087, 53.3960233043161], [-2.15011145241794, 53.3962789434441], [-2.15274315912213, 53.3984503904005], [-2.1529134496755, 53.3986004258362], [-2.1540752085539, 53.3994486218616], [-2.15538910697838, 53.4005349886919], [-2.15582021060264, 53.4009423397161], [-2.15594111925866, 53.4011855232874], [-2.15383654156514, 53.4014758932629], [-2.15318190348088, 53.4015359448934], [-2.15309843280686, 53.4008367878029], [-2.15350084904762, 53.4006407366032], [-2.15321424635133, 53.3999037163086], [-2.15256321590413, 53.4000157856482], [-2.15174003688919, 53.3995393495298], [-2.15112775105027, 53.4004719382832], [-2.15000991512595, 53.4006446821267], [-2.1501779012493, 53.401086145957], [-2.14901391901117, 53.4012939399083], [-2.14847023254984, 53.401255596787], [-2.14783173090488, 53.4000698877595], [-2.14689560486249, 53.3993111423823], [-2.14638267038213, 53.3994041547138], [-2.14628288077532, 53.3996979413232], [-2.14629686867286, 53.4001640610254], [-2.14707206026474, 53.4003068018789], [-2.14729764981323, 53.4025268011559], [-2.14694439533494, 53.4021832111834]]]}, "properties": {"LSOA21CD": "E01005877", "LSOA21NM": "Stockport 019E"}}, {"type": "Feature", "geometry": {"type": "Polygon", "coordinates": [[[-2.2222090899933, 53.4638356225688], [-2.22220060296461, 53.4634722205141], [-2.22165373924839, 53.4635247864227], [-2.22112290813632, 53.4632298590051], [-2.22054556271281, 53.462909088695], [-2.21967747914631, 53.4628540323517], [-2.21924890723932, 53.4632861381526], [-2.21813196785175, 53.4629758591564], [-2.21620449512812, 53.4624382553634], [-2.2157479153077, 53.4630775321503], [-2.21522703911696, 53.462897181832], [-2.21498231719592, 53.4624849116946], [-2.21453380176485, 53.4632237837185], [-2.21410506981299, 53.4631109818898], [-2.21267439866921, 53.4619864325966], [-2.2125481786977, 53.4617617228002], [-2.21127683328604, 53.4622926091712], [-2.21085804320936, 53.4615333178303], [-2.20954335095596, 53.4611132582374], [-2.20797064252425, 53.4616170052757], [-2.20722663004861, 53.4612276315677], [-2.20444416409997, 53.4598228227338], [-2.20540497801739, 53.4597724831812], [-2.20827908838605, 53.4599394677378], [-2.20919035539585, 53.4602120814497], [-2.21056665827578, 53.4599139663606], [-2.21257834964306, 53.4597963302189], [-2.21422009655398, 53.4600666383623], [-2.21445841278649, 53.4600592197083], [-2.21701689394541, 53.4596707360099], [-2.21958495308034, 53.4593166810148], [-2.22014100534304, 53.4592186744609], [-2.22082447060551, 53.4591268128264], [-2.22570504379587, 53.4591844890714], [-2.22767066527078, 53.4592459093216], [-2.22841546923803, 53.4608340890495], [-2.22556294556954, 53.4614678084163], [-2.2254568436706, 53.4626369478317], [-2.22476846897446, 53.4631672207602], [-2.22453711040962, 53.4633671500006], [-2.22361882920334, 53.463243760044], [-2.2222090899933, 53.4638356225688]]]}, "properties": {"LSOA21CD": "E01034119", "LSOA21NM": "Manchester 022H"}}, {"type": "Feature", "geometry": {"type": "Polygon", "coordinates": [[[-2.19137689672675, 53.4541893038143], [-2.19020784170323, 53.4524414442435], [-2.18983747696524, 53.4526096448756], [-2.18733750662349, 53.4538851645176], [-2.18701602516382, 53.4539081676369], [-2.18626052197132, 53.4524003266138], [-2.18710928235289, 53.4524194978617], [-2.18748181546762, 53.4517148043207], [-2.18728194341404, 53.4506466348774], [-2.18625646102024, 53.4504747068288], [-2.18628058153258, 53.4500936064789], [-2.18658157311204, 53.4501016917553], [-2.18815748247415, 53.4501621106648], [-2.18805184720317, 53.4504722554028], [-2.19018095659611, 53.4502398069326], [-2.19020317620189, 53.4500436888024], [-2.19114948208284, 53.4500598883274], [-2.19125661698642, 53.4494016013057], [-2.19061231378481, 53.4490563649588], [-2.19217386951349, 53.4489701617898], [-2.19279034956547, 53.4500713705034], [-2.19279860706888, 53.4500832883607], [-2.19515921262906, 53.4528479290953], [-2.19551432111737, 53.4532332804195], [-2.19500842662182, 53.4533536643302], [-2.19179554257078, 53.4540948692219], [-2.19137689672675, 53.4541893038143]]]}, "properties": {"LSOA21CD": "E01034137", "LSOA21NM": "Manchester 063C"}}, {"type": "Feature", "geometry": {"type": "Polygon", "coordinates": [[[-2.23184876267611, 53.4822614051658], [-2.23153601507411, 53.4821114140765], [-2.23111021123241, 53.4813931790786], [-2.23134686794704, 53.4813141564548], [-2.23305204030617, 53.4810298767595], [-2.23274882014339, 53.480688914948], [-2.23212683801866, 53.479917136048], [-2.23405303434157, 53.479463968949], [-2.23436396143212, 53.4797235060133], [-2.23413921560624, 53.4787778908347], [-2.23521582315025, 53.4788437618564], [-2.23603399598132, 53.4783315494508], [-2.23603150733487, 53.4775635845445], [-2.23675737082344, 53.4771087871799], [-2.23705254561663, 53.4769234189428], [-2.23550932414643, 53.4757669642608], [-2.23621865533539, 53.475641244226], [-2.23697103022411, 53.4752683693668], [-2.23686149936819, 53.4750722296831], [-2.23675067278564, 53.4746767467256], [-2.23742674812371, 53.4745290566931], [-2.23778278603215, 53.4750698020327], [-2.23799477748087, 53.4756632185482], [-2.23771290639333, 53.4757303431857], [-2.23719729059324, 53.4758535403778], [-2.23748455495205, 53.4760327389748], [-2.23816175981881, 53.4758875933804], [-2.23897882066617, 53.4765061606458], [-2.23923601154152, 53.4766944018648], [-2.23989734882097, 53.4764054673385], [-2.24023685740992, 53.4768928382386], [-2.24103915999379, 53.4769982761805], [-2.24139109278631, 53.4767799875583], [-2.24251550025399, 53.4776533512735], [-2.24180910494952, 53.4784121542613], [-2.24230571365429, 53.4786566655891], [-2.24141137360602, 53.4792923494859], [-2.24077487613336, 53.4797383035737], [-2.24198385456788, 53.4803650526479], [-2.24117331052682, 53.4809239451326], [-2.23981425135431, 53.4804053544021], [-2.23847654270721, 53.481010222964], [-2.23780081567124, 53.4814340065452], [-2.23688162725574, 53.4814358235514], [-2.23571229897608, 53.4825256968956], [-2.23515317342926, 53.4822391716711], [-2.23244994890613, 53.4839162797347], [-2.23327275789804, 53.4829623869978], [-2.23184876267611, 53.4822614051658]]]}, "properties": {"LSOA21CD": "E01033653", "LSOA21NM": "Manchester 055B"}}, {"type": "Feature", "geometry": {"type": "Polygon", "coordinates": [[[-2.22973121880608, 53.4800121050094], [-2.22890948495745, 53.4792192258934], [-2.22898751832112, 53.4789434690452], [-2.22953827711307, 53.4787271442835], [-2.23205431813363, 53.4776612273289], [-2.23112731589986, 53.4761979351508], [-2.23087240156952, 53.4764231332378], [-2.2287470702381, 53.4762474455045], [-2.2279129527569, 53.4752243711284], [-2.22736728383801, 53.4746052257711], [-2.22783112262705, 53.4740021401582], [-2.2264211428184, 53.4737650744067], [-2.22978948667133, 53.473964150644], [-2.2311514856703, 53.473697211477], [-2.23395995296923, 53.472415356008], [-2.23394394766276, 53.4732893032183], [-2.23531162767978, 53.4754347859163], [-2.23400962263759, 53.4757501900113], [-2.23456486291561, 53.4766316760406], [-2.23603150733487, 53.4775635845445], [-2.23603399598132, 53.4783315494508], [-2.23521582315025, 53.4788437618564], [-2.23413921560624, 53.4787778908347], [-2.23436396143212, 53.4797235060133], [-2.23405303434157, 53.479463968949], [-2.23212683801866, 53.479917136048], [-2.23274882014339, 53.480688914948], [-2.23305204030617, 53.4810298767595], [-2.23134686794704, 53.4813141564548], [-2.23111021123241, 53.4813931790786], [-2.22992661998401, 53.4807115375098], [-2.22973121880608, 53.4800121050094]]]}, "properties": {"LSOA21CD": "E01033654", "LSOA21NM": "Manchester 055C"}}, {"type": "Feature", "geometry": {"type": "Polygon", "coordinates": [[[-2.22727017047842, 53.4852704256124], [-2.22660666468181, 53.4845836782636], [-2.22746393215732, 53.4842674516609], [-2.22703868654527, 53.4837971299953], [-2.22672152907129, 53.4835138386604], [-2.2266480959644, 53.4832977468954], [-2.22557894072794, 53.4838024018038], [-2.22489105199157, 53.4834875053928], [-2.22428569650631, 53.4832554360612], [-2.22475661357261, 53.4823850298238], [-2.22245651941177, 53.4817426727739], [-2.22319220980426, 53.4814310733032], [-2.22330965425876, 53.481383665965], [-2.2246282504113, 53.4808513889444], [-2.22254568305402, 53.4794607281291], [-2.21976538915398, 53.4782046700037], [-2.21869688137576, 53.478070586774], [-2.21794496772794, 53.4762065465255], [-2.21685971790453, 53.4753412344235], [-2.2192825235359, 53.4754319763457], [-2.22119132577644, 53.4739083898871], [-2.22215981872957, 53.4735526900677], [-2.2255101705567, 53.4736060226108], [-2.2264211428184, 53.4737650744067], [-2.22783112262705, 53.4740021401582], [-2.22736728383801, 53.4746052257711], [-2.2279129527569, 53.4752243711284], [-2.2287470702381, 53.4762474455045], [-2.23087240156952, 53.4764231332378], [-2.23112731589986, 53.4761979351508], [-2.23205431813363, 53.4776612273289], [-2.22953827711307, 53.4787271442835], [-2.22898751832112, 53.4789434690452], [-2.22890948495745, 53.4792192258934], [-2.22802662055246, 53.4799368293108], [-2.22922075479996, 53.4802141436007], [-2.22769968426727, 53.4804379831407], [-2.22832073172598, 53.4810480011267], [-2.22786936242479, 53.4811746988836], [-2.2260566553823, 53.480357789852], [-2.22473019401286, 53.4809015407753], [-2.22701339795138, 53.4817502489061], [-2.22738988766573, 53.4820370858246], [-2.22681192370495, 53.4823583930017], [-2.22633170184822, 53.4825517078942], [-2.22757239880099, 53.4831118805139], [-2.22842655228857, 53.48335779449], [-2.22811834994159, 53.483358384169], [-2.22836263653233, 53.4839332797347], [-2.22856618270596, 53.4844122513196], [-2.22923625600018, 53.4844515481101], [-2.22850596690145, 53.4846879156876], [-2.22903036732615, 53.4852486230563], [-2.22906140095567, 53.4852383885673], [-2.22964367303603, 53.4858195203739], [-2.22861357113594, 53.486313210946], [-2.22817246842905, 53.4861577022868], [-2.22772028440906, 53.4856819916751], [-2.22727017047842, 53.4852704256124]]]}, "properties": {"LSOA21CD": "E01033661", "LSOA21NM": "Manchester 055E"}}, {"type": "Feature", "geometry": {"type": "Polygon", "coordinates": [[[-2.14509940667653, 53.4095763173237], [-2.14637044138611, 53.4090575521321], [-2.14712512073302, 53.408844433918], [-2.14923927297856, 53.4085674356387], [-2.15114961494923, 53.4089360885346], [-2.15361151307497, 53.4071165780809], [-2.1546764198625, 53.4067446035277], [-2.15570478976426, 53.406489004747], [-2.15638599456918, 53.4076655931742], [-2.15766948877855, 53.4084511037369], [-2.15799050326801, 53.4090888694917], [-2.15881159836942, 53.4086780655875], [-2.15986908007158, 53.4088152030221], [-2.16117137199731, 53.4081625480131], [-2.16139803456117, 53.4082993988319], [-2.16283866865005, 53.4095174323882], [-2.1635258289015, 53.4102115071845], [-2.15961760970456, 53.4124212635656], [-2.15857492544316, 53.4125533023643], [-2.15784333209136, 53.412901930209], [-2.15779427943781, 53.4142583963926], [-2.15625138276738, 53.4144241945876], [-2.15656446340298, 53.4153091109885], [-2.15559255056216, 53.4161929653617], [-2.15569334121138, 53.4173972786258], [-2.15525048054756, 53.4180548490114], [-2.15441805318663, 53.4183913180069], [-2.15156336178056, 53.4185902935211], [-2.14954460393713, 53.4170852416795], [-2.14824970395433, 53.4168082246023], [-2.1474803778657, 53.4162339250988], [-2.14794375758736, 53.4153614749054], [-2.14721617879658, 53.4137894085381], [-2.14620252490734, 53.4121367919587], [-2.1464254751796, 53.4111980653045], [-2.14544160747799, 53.4108248944296], [-2.14468876281323, 53.4097682338962], [-2.14509940667653, 53.4095763173237]]]}, "properties": {"LSOA21CD": "E01033947", "LSOA21NM": "Stockport 014E"}}, {"type": "Feature", "geometry": {"type": "Polygon", "coordinates": [[[-2.15799050326801, 53.4090888694917], [-2.15766948877855, 53.4084511037369], [-2.15638599456918, 53.4076655931742], [-2.15570478976426, 53.406489004747], [-2.1546764198625, 53.4067446035277], [-2.15438654532586, 53.4062049109435], [-2.15362132327061, 53.4043808998717], [-2.15396307315177, 53.404201139427], [-2.15551554291266, 53.4038060188085], [-2.15561545723373, 53.4034441712819], [-2.15738442599393, 53.4030793085156], [-2.15872615471154, 53.4052129289262], [-2.1587460996314, 53.4052460174148], [-2.15967692208839, 53.4068066538408], [-2.16063058552613, 53.4077220036457], [-2.16139803456117, 53.4082993988319], [-2.16117137199731, 53.4081625480131], [-2.15986908007158, 53.4088152030221], [-2.15881159836942, 53.4086780655875], [-2.15799050326801, 53.4090888694917]]]}, "properties": {"LSOA21CD": "E01033948", "LSOA21NM": "Stockport 014F"}}, {"type": "Feature", "geometry": {"type": "Polygon", "coordinates": [[[-2.16159185825639, 53.4238693744656], [-2.16228819696658, 53.4225753852381], [-2.16169196740937, 53.422489376322], [-2.1618260325899, 53.4221296561014], [-2.16227667712849, 53.4218369811378], [-2.16204695751153, 53.4210071288893], [-2.15988093138149, 53.4200659373234], [-2.16055131289764, 53.419282041832], [-2.16139951986618, 53.4192152515875], [-2.161347159934, 53.4188495283233], [-2.16349947219757, 53.4186651665584], [-2.16366665694421, 53.4191696464487], [-2.16429002267015, 53.4191464708011], [-2.16491081599525, 53.4196230169547], [-2.16638983547766, 53.4193462271845], [-2.16585580794288, 53.418453551763], [-2.16736294459161, 53.4181498860675], [-2.16761151085077, 53.4187220400455], [-2.16838306234889, 53.4185248037222], [-2.16919907896171, 53.4195491079118], [-2.1698045093878, 53.4191703243029], [-2.16953786900522, 53.4201894518098], [-2.16937633692018, 53.4208067689517], [-2.16967035076374, 53.4211497199525], [-2.17029359428481, 53.4211654950814], [-2.17109769359445, 53.420096814034], [-2.17176407125302, 53.4199504474334], [-2.17205431535405, 53.4202432873861], [-2.17114216456914, 53.4187998796073], [-2.17299841367368, 53.4183336157867], [-2.17339797633549, 53.4188066364159], [-2.1753280183928, 53.4211578046695], [-2.17248140340698, 53.4219929746912], [-2.17012433991476, 53.4223466817177], [-2.16906515559737, 53.4222907709664], [-2.16871809286658, 53.4235501081526], [-2.16831552630093, 53.4231453522879], [-2.16760099455009, 53.4235945969276], [-2.16624277788632, 53.4241370027181], [-2.16226519695959, 53.4244616260372], [-2.16159185825639, 53.4238693744656]]]}, "properties": {"LSOA21CD": "E01005916", "LSOA21NM": "Stockport 007C"}}, {"type": "Feature", "geometry": {"type": "Polygon", "coordinates": [[[-2.16953786900522, 53.4201894518098], [-2.1698045093878, 53.4191703243029], [-2.16919907896171, 53.4195491079118], [-2.16838306234889, 53.4185248037222], [-2.16761151085077, 53.4187220400455], [-2.16736294459161, 53.4181498860675], [-2.16585580794288, 53.418453551763], [-2.16638983547766, 53.4193462271845], [-2.16491081599525, 53.4196230169547], [-2.16429002267015, 53.4191464708011], [-2.16366665694421, 53.4191696464487], [-2.16349947219757, 53.4186651665584], [-2.16300091596699, 53.4184967147444], [-2.1628020935191, 53.4176520711469], [-2.16009362989197, 53.4176018179764], [-2.1598198668437, 53.4169743968078], [-2.15975871746333, 53.4165596110227], [-2.16071922613629, 53.4159201409608], [-2.16031307091626, 53.4159386662474], [-2.1602796950136, 53.4156729517417], [-2.16222071301563, 53.4151181348726], [-2.16187999831722, 53.4165207874291], [-2.16272249055462, 53.4164932112418], [-2.16275349234063, 53.416889664405], [-2.16383683604651, 53.4164646345308], [-2.16386790776627, 53.4160971285026], [-2.16440625627576, 53.4161577848104], [-2.16493783485324, 53.4158212422556], [-2.16500171190193, 53.416415016369], [-2.16595635800021, 53.4163803549436], [-2.16660121510912, 53.4157322745554], [-2.16820986137359, 53.4152064084449], [-2.16776923783752, 53.4148245120891], [-2.16610823862262, 53.4150013814182], [-2.16561004713459, 53.4148217964423], [-2.16584477070603, 53.4142449492887], [-2.16552592299178, 53.4141140598893], [-2.16404206623108, 53.4143696347386], [-2.16369839459045, 53.4132474407505], [-2.16246123299383, 53.4132991678883], [-2.16116666120626, 53.4126187030531], [-2.16018207817901, 53.413107501651], [-2.15936780611913, 53.412605246919], [-2.15961760970456, 53.4124212635656], [-2.1635258289015, 53.4102115071845], [-2.16283866865005, 53.4095174323882], [-2.16562346505187, 53.4092170644389], [-2.16925246204469, 53.4136032868163], [-2.17157890908316, 53.416574383586], [-2.17188561705761, 53.4169486850194], [-2.17236324852637, 53.4175536668064], [-2.17299841367368, 53.4183336157867], [-2.17114216456914, 53.4187998796073], [-2.17205431535405, 53.4202432873861], [-2.17176407125302, 53.4199504474334], [-2.17109769359445, 53.420096814034], [-2.17029359428481, 53.4211654950814], [-2.16967035076374, 53.4211497199525], [-2.16937633692018, 53.4208067689517], [-2.16953786900522, 53.4201894518098]]]}, "properties": {"LSOA21CD": "E01005917", "LSOA21NM": "Stockport 007D"}}, {"type": "Feature", "geometry": {"type": "Polygon", "coordinates": [[[-2.21022240990847, 53.4678751716137], [-2.21044502221079, 53.4673776099468], [-2.21168665150815, 53.4676086351957], [-2.21405930242163, 53.4676458585041], [-2.21398991265514, 53.4673406592303], [-2.2147660808036, 53.4672563816557], [-2.21464905370883, 53.4669985376187], [-2.2150968758714, 53.4670986377084], [-2.21504619317724, 53.4666958228896], [-2.21571620228861, 53.4667525630476], [-2.21456210752909, 53.4657843776397], [-2.21384445591918, 53.4668552719872], [-2.21306139720865, 53.465817514202], [-2.21222469711219, 53.4662498267926], [-2.21234648460806, 53.4660324888099], [-2.21167399052719, 53.4659180783242], [-2.21353127613698, 53.464765267072], [-2.21316904119925, 53.4645486450385], [-2.21003841720722, 53.4627846577056], [-2.20797064252425, 53.4616170052757], [-2.20954335095596, 53.4611132582374], [-2.21085804320936, 53.4615333178303], [-2.21127683328604, 53.4622926091712], [-2.2125481786977, 53.4617617228002], [-2.21267439866921, 53.4619864325966], [-2.21410506981299, 53.4631109818898], [-2.21453380176485, 53.4632237837185], [-2.21498231719592, 53.4624849116946], [-2.21522703911696, 53.462897181832], [-2.2157479153077, 53.4630775321503], [-2.21620449512812, 53.4624382553634], [-2.21813196785175, 53.4629758591564], [-2.21924890723932, 53.4632861381526], [-2.21967747914631, 53.4628540323517], [-2.22054556271281, 53.462909088695], [-2.22112290813632, 53.4632298590051], [-2.22062154920486, 53.4636701285667], [-2.21925519724669, 53.4632879063846], [-2.21944372112217, 53.4639458515731], [-2.21802127527122, 53.464967490369], [-2.21724635041115, 53.4655861168008], [-2.21683497742041, 53.4654656983592], [-2.21693005978948, 53.4650339871805], [-2.21636789136429, 53.4649680034667], [-2.21570641418649, 53.4656230158427], [-2.21622289610774, 53.4660919424361], [-2.2173188706707, 53.4661946038975], [-2.21722953077066, 53.4667422275003], [-2.21772855630506, 53.4668615281456], [-2.2183422937919, 53.466015519438], [-2.21971185519428, 53.4663695834484], [-2.21898375780745, 53.4667869166518], [-2.21948879816773, 53.4669647081197], [-2.21932982639199, 53.4673127658951], [-2.2190130487082, 53.4672234598237], [-2.21903030750748, 53.467654863869], [-2.21730418656816, 53.4691569593725], [-2.21570795014251, 53.4688654124442], [-2.21022240990847, 53.4678751716137]]]}, "properties": {"LSOA21CD": "E01005063", "LSOA21NM": "Manchester 018C"}}, {"type": "Feature", "geometry": {"type": "Polygon", "coordinates": [[[-2.21664681724721, 53.4753320754686], [-2.2161152653046, 53.4720733837632], [-2.21570795014251, 53.4688654124442], [-2.21730418656816, 53.4691569593725], [-2.21903030750748, 53.467654863869], [-2.2190130487082, 53.4672234598237], [-2.21932982639199, 53.4673127658951], [-2.21989655673882, 53.4672499296866], [-2.22030561974325, 53.4666122092465], [-2.22083371028956, 53.4668336412881], [-2.22050709180807, 53.4677600278724], [-2.22115513490562, 53.4681084856274], [-2.2232596340407, 53.4669729834104], [-2.2233797470309, 53.4665660377363], [-2.22455711388504, 53.4671975595299], [-2.22391342218889, 53.4673681941108], [-2.22507115998598, 53.4680579010168], [-2.2257338454511, 53.4679488112545], [-2.22617365652647, 53.468252855339], [-2.22713870568966, 53.4677672849515], [-2.22710949394626, 53.4677541831952], [-2.22780506260335, 53.467621165859], [-2.22773041878253, 53.467337074845], [-2.22703449926764, 53.4670335195031], [-2.22657615810789, 53.4671950638361], [-2.22592848256242, 53.4665213758054], [-2.22631042435689, 53.4660314161485], [-2.22739725494295, 53.4665371682951], [-2.22829446405646, 53.4661183685945], [-2.22942122051778, 53.4670872403638], [-2.22818846554921, 53.467547977479], [-2.22950505276195, 53.4686779795229], [-2.23100410654147, 53.4697774938652], [-2.22879147626926, 53.4700227139629], [-2.22993302404175, 53.4713330715208], [-2.22909860446446, 53.4715915822946], [-2.22938137067302, 53.4719794195157], [-2.22900946003677, 53.4721179712453], [-2.22948107702877, 53.4726417884998], [-2.2291230408948, 53.4728910749809], [-2.22978948667133, 53.473964150644], [-2.2264211428184, 53.4737650744067], [-2.2255101705567, 53.4736060226108], [-2.22215981872957, 53.4735526900677], [-2.22119132577644, 53.4739083898871], [-2.2192825235359, 53.4754319763457], [-2.21685971790453, 53.4753412344235], [-2.21664681724721, 53.4753320754686]]]}, "properties": {"LSOA21CD": "E01005065", "LSOA21NM": "Manchester 018D"}}, {"type": "Feature", "geometry": {"type": "Polygon", "coordinates": [[[-2.1840784161806, 53.4396476370844], [-2.18198614189375, 53.4392349514173], [-2.17964651649747, 53.4389308279432], [-2.17889129330762, 53.4391136505398], [-2.17482446818584, 53.43680360772], [-2.17483969043949, 53.4365848582305], [-2.17533203307764, 53.434459162063], [-2.17595445425976, 53.4343120560374], [-2.17657811613472, 53.433113521606], [-2.17720273074282, 53.4331041804935], [-2.17902978151551, 53.4341329216477], [-2.180139114018, 53.4343816603283], [-2.17988773501041, 53.4345978731225], [-2.18031734636837, 53.4347671336521], [-2.18110548237217, 53.4347192780642], [-2.18173052884168, 53.4351119157738], [-2.18379780045958, 53.4352084616031], [-2.18573056093006, 53.4361194966281], [-2.18632955323609, 53.436049699219], [-2.18741234682997, 53.436298581392], [-2.18746183846758, 53.4366428720641], [-2.18835915948723, 53.4366417268388], [-2.18658711805386, 53.4373661334011], [-2.18728286563565, 53.4384065954789], [-2.18612794884573, 53.4383204453375], [-2.18611612376431, 53.4383185852262], [-2.18589193955589, 53.4379965620087], [-2.18532723578894, 53.4381567013665], [-2.18473650329441, 53.4391346995145], [-2.18536323053319, 53.4394616895061], [-2.18432571899954, 53.4392632879481], [-2.1840784161806, 53.4396476370844]]]}, "properties": {"LSOA21CD": "E01005215", "LSOA21NM": "Manchester 034C"}}, {"type": "Feature", "geometry": {"type": "Polygon", "coordinates": [[[-2.19416432907598, 53.4410892884497], [-2.19388784408007, 53.4404732248662], [-2.19000540912807, 53.4405997871182], [-2.18865333873423, 53.4407308958609], [-2.18891681302126, 53.4403977947037], [-2.18803555913225, 53.4396836853165], [-2.18749968037589, 53.439781498838], [-2.18612794884573, 53.4383204453375], [-2.18728286563565, 53.4384065954789], [-2.18658711805386, 53.4373661334011], [-2.18835915948723, 53.4366417268388], [-2.18872679860994, 53.436822944712], [-2.18721915256527, 53.4352477844581], [-2.18879025199041, 53.4348472813686], [-2.19135230146047, 53.4351283061618], [-2.19437987685831, 53.4355962153891], [-2.1937575798008, 53.4374950692064], [-2.19754284630242, 53.4379303828218], [-2.19752195390184, 53.4381865817329], [-2.19662999522989, 53.4381473222676], [-2.19658861601009, 53.4387954279085], [-2.19405464132901, 53.43852098586], [-2.19432257147164, 53.4390659369496], [-2.1936851486803, 53.4393721003875], [-2.19366994517001, 53.4395770726003], [-2.19693989602736, 53.4395954738859], [-2.19692501479134, 53.439856876014], [-2.19669670053872, 53.4405190879555], [-2.19548506412444, 53.4405127511937], [-2.19542877583495, 53.4417407611205], [-2.19370801118735, 53.4420090773995], [-2.19363760440909, 53.4413103562461], [-2.19416432907598, 53.4410892884497]]]}, "properties": {"LSOA21CD": "E01005216", "LSOA21NM": "Manchester 034D"}}, {"type": "Feature", "geometry": {"type": "Polygon", "coordinates": [[[-2.19358458529686, 53.4438638569565], [-2.19396953575004, 53.4435836001017], [-2.19466254735187, 53.4437645835715], [-2.19434936692473, 53.4430247744902], [-2.19483782198235, 53.4429510142622], [-2.19490085503601, 53.4432194064299], [-2.19620733148804, 53.4430413010254], [-2.1961166314254, 53.4428113735288], [-2.19839896063644, 53.4428122930756], [-2.19825038185793, 53.443476327201], [-2.19903575711799, 53.443293935897], [-2.19974370054702, 53.4446067775299], [-2.19822979273485, 53.4453383235365], [-2.19804090942787, 53.4458119469527], [-2.19737121615688, 53.4482825116167], [-2.19598712781971, 53.4484307397156], [-2.19427667365733, 53.4485012004113], [-2.19205113833774, 53.4486107328646], [-2.19143543615805, 53.4460156588424], [-2.19152937262485, 53.4454018672247], [-2.19157279600533, 53.4450152945884], [-2.1936835026423, 53.4443365506599], [-2.19366110759203, 53.4440411642041], [-2.19358458529686, 53.4438638569565]]]}, "properties": {"LSOA21CD": "E01005219", "LSOA21NM": "Manchester 031A"}}, {"type": "Feature", "geometry": {"type": "Polygon", "coordinates": [[[-2.19055799507597, 53.4456402088314], [-2.19056472960813, 53.4451649254524], [-2.18848633789192, 53.4453239319759], [-2.18836629266063, 53.4450657034849], [-2.18899807389263, 53.4449744687474], [-2.18874750167657, 53.444754595674], [-2.18791899325819, 53.4448258322679], [-2.18809926851335, 53.4440149473583], [-2.18695695224374, 53.4435144153441], [-2.18726024120256, 53.4428162231649], [-2.18556109691757, 53.4429734044474], [-2.18487728686546, 53.4422882031685], [-2.1852961688825, 53.4416407559643], [-2.18576918876576, 53.4416245674565], [-2.18546114322002, 53.4411627231088], [-2.18599138138555, 53.4411001734242], [-2.18679738253038, 53.4405208395864], [-2.18711562507061, 53.4409679503212], [-2.18860362244276, 53.4408317306164], [-2.18865333873423, 53.4407308958609], [-2.19000540912807, 53.4405997871182], [-2.19388784408007, 53.4404732248662], [-2.19416432907598, 53.4410892884497], [-2.19363760440909, 53.4413103562461], [-2.19370801118735, 53.4420090773995], [-2.19542877583495, 53.4417407611205], [-2.19550480150315, 53.4422764173954], [-2.19563216562107, 53.4429005718438], [-2.1961166314254, 53.4428113735288], [-2.19620733148804, 53.4430413010254], [-2.19490085503601, 53.4432194064299], [-2.19483782198235, 53.4429510142622], [-2.19434936692473, 53.4430247744902], [-2.19466254735187, 53.4437645835715], [-2.19396953575004, 53.4435836001017], [-2.19358458529686, 53.4438638569565], [-2.19366110759203, 53.4440411642041], [-2.1936835026423, 53.4443365506599], [-2.19157279600533, 53.4450152945884], [-2.19152937262485, 53.4454018672247], [-2.19143543615805, 53.4460156588424], [-2.19049219877062, 53.4462539007765], [-2.18958454564107, 53.4457120395815], [-2.19055799507597, 53.4456402088314]]]}, "properties": {"LSOA21CD": "E01005221", "LSOA21NM": "Manchester 031C"}}, {"type": "Feature", "geometry": {"type": "Polygon", "coordinates": [[[-2.1739931257138, 53.4436695859625], [-2.17422412154044, 53.4409828184589], [-2.17482446818584, 53.43680360772], [-2.17889129330762, 53.4391136505398], [-2.17964651649747, 53.4389308279432], [-2.18198614189375, 53.4392349514173], [-2.1840784161806, 53.4396476370844], [-2.18432571899954, 53.4392632879481], [-2.18536323053319, 53.4394616895061], [-2.18473650329441, 53.4391346995145], [-2.18532723578894, 53.4381567013665], [-2.18589193955589, 53.4379965620087], [-2.18611612376431, 53.4383185852262], [-2.18612794884573, 53.4383204453375], [-2.18749968037589, 53.439781498838], [-2.18803555913225, 53.4396836853165], [-2.18891681302126, 53.4403977947037], [-2.18865333873423, 53.4407308958609], [-2.18860362244276, 53.4408317306164], [-2.18711562507061, 53.4409679503212], [-2.18679738253038, 53.4405208395864], [-2.18599138138555, 53.4411001734242], [-2.18546114322002, 53.4411627231088], [-2.18576918876576, 53.4416245674565], [-2.1852961688825, 53.4416407559643], [-2.18487728686546, 53.4422882031685], [-2.18556109691757, 53.4429734044474], [-2.18726024120256, 53.4428162231649], [-2.18695695224374, 53.4435144153441], [-2.18427059757655, 53.4430649073847], [-2.18413833959547, 53.443266462332], [-2.18282747507169, 53.4433896585516], [-2.18256547871596, 53.4431992971111], [-2.18254211336487, 53.443213354937], [-2.17957052751817, 53.4432592680668], [-2.17759527775989, 53.4432993908227], [-2.17695107390071, 53.4425592396953], [-2.1754953324438, 53.4430360977084], [-2.17399229893363, 53.4436728320056], [-2.1739931257138, 53.4436695859625]]]}, "properties": {"LSOA21CD": "E01005222", "LSOA21NM": "Manchester 031D"}}, {"type": "Feature", "geometry": {"type": "Polygon", "coordinates": [[[-2.18647212247824, 53.4614827572698], [-2.18634257633602, 53.4612528304641], [-2.18765261651493, 53.4605215553025], [-2.18781208283291, 53.4604325377355], [-2.19063281035901, 53.4600407344438], [-2.19116404642229, 53.4600750824336], [-2.19147446011812, 53.4607242189366], [-2.19236558007262, 53.4604830288393], [-2.19193158549113, 53.4598150293111], [-2.19311856259339, 53.4586343957869], [-2.19375411487044, 53.4584918610871], [-2.19362376537271, 53.4582012184467], [-2.19641737514107, 53.4575883434432], [-2.19628261756665, 53.4579810291637], [-2.19510611957187, 53.4582381263158], [-2.19526696468294, 53.4584508783487], [-2.19676594211226, 53.458124212826], [-2.19713326990539, 53.4588172856129], [-2.19717828151596, 53.4588819499279], [-2.1975264161954, 53.4593820735721], [-2.19826388179286, 53.4591942333097], [-2.1990507007162, 53.4585084762741], [-2.19825874016161, 53.4571917843632], [-2.2006142751733, 53.4562718637387], [-2.20181777230313, 53.4560091719608], [-2.2020598057547, 53.4564075165775], [-2.20278481197669, 53.457582443276], [-2.2036167590172, 53.4574442752416], [-2.20380303763578, 53.4586034732933], [-2.2046465413182, 53.4586290031238], [-2.2043978548895, 53.4598208792317], [-2.20379235972713, 53.4595202954529], [-2.20149072730196, 53.4600814600682], [-2.20249092930681, 53.4613830891639], [-2.20288196446775, 53.4612655800367], [-2.20356077891153, 53.4620176577174], [-2.20357561924562, 53.4620340983164], [-2.20320821794963, 53.4621651223497], [-2.20424115745865, 53.4632230914947], [-2.20745305366994, 53.4663077716837], [-2.20666056310459, 53.4665324820632], [-2.20778776285454, 53.4673952768925], [-2.20626250243185, 53.4671266861575], [-2.2028662689668, 53.4665212514238], [-2.20123039158338, 53.4662255504607], [-2.19819448324886, 53.4656632104469], [-2.19634203739106, 53.4653236934852], [-2.19030441527704, 53.4642432634892], [-2.18793300014254, 53.4638141052885], [-2.18605812313165, 53.4634789127351], [-2.18500339143949, 53.463293227581], [-2.18529445660031, 53.4623136630509], [-2.18489340124095, 53.462036401135], [-2.18647212247824, 53.4614827572698]]]}, "properties": {"LSOA21CD": "E01005232", "LSOA21NM": "Manchester 020C"}}, {"type": "Feature", "geometry": {"type": "Polygon", "coordinates": [[[-2.19713326990539, 53.4588172856129], [-2.19676594211226, 53.458124212826], [-2.19526696468294, 53.4584508783487], [-2.19510611957187, 53.4582381263158], [-2.19628261756665, 53.4579810291637], [-2.19641737514107, 53.4575883434432], [-2.1964153082932, 53.4573401958406], [-2.19585172160577, 53.4565225700167], [-2.19654857162506, 53.4563115713137], [-2.19567179973477, 53.4559765073392], [-2.1956218527959, 53.4555333547131], [-2.19500615458125, 53.455456542631], [-2.19459649649209, 53.4547151146346], [-2.19595042681353, 53.4542411421697], [-2.19540599955394, 53.4536860579637], [-2.19500842662182, 53.4533536643302], [-2.19551432111737, 53.4532332804195], [-2.19515921262906, 53.4528479290953], [-2.19575654325737, 53.4525416492841], [-2.19586471328605, 53.4517496311447], [-2.19690465894625, 53.4519636276056], [-2.19741125995089, 53.4518479080006], [-2.19749952293985, 53.4512002382202], [-2.19833267584183, 53.4510718108361], [-2.19893045570511, 53.4522297045546], [-2.19835799653203, 53.4531481854294], [-2.19863802571966, 53.4533281515622], [-2.19999276401599, 53.453189799894], [-2.20041097080232, 53.4545903696322], [-2.20051427384067, 53.4548513625866], [-2.19985583457778, 53.4550601277282], [-2.2006142751733, 53.4562718637387], [-2.19825874016161, 53.4571917843632], [-2.1990507007162, 53.4585084762741], [-2.19826388179286, 53.4591942333097], [-2.1975264161954, 53.4593820735721], [-2.19717828151596, 53.4588819499279], [-2.19713326990539, 53.4588172856129]]]}, "properties": {"LSOA21CD": "E01005234", "LSOA21NM": "Manchester 063A"}}, {"type": "Feature", "geometry": {"type": "Polygon", "coordinates": [[[-2.19515921262906, 53.4528479290953], [-2.19279860706888, 53.4500832883607], [-2.19279034956547, 53.4500713705034], [-2.19217386951349, 53.4489701617898], [-2.19205113833774, 53.4486107328646], [-2.19427667365733, 53.4485012004113], [-2.19598712781971, 53.4484307397156], [-2.19737121615688, 53.4482825116167], [-2.1998455405953, 53.4480446788246], [-2.20042470973371, 53.4480154902268], [-2.20117522657958, 53.4491717741396], [-2.20069509761314, 53.4492957908781], [-2.20130901965339, 53.4502805981045], [-2.20147426013153, 53.4505135380923], [-2.20191982876936, 53.4506958535506], [-2.20166495702259, 53.4510304747929], [-2.19966772045679, 53.4514659758103], [-2.19938298475367, 53.4512591492667], [-2.19893468493386, 53.4513580301861], [-2.19952978736114, 53.4523170880724], [-2.19893045570511, 53.4522297045546], [-2.19833267584183, 53.4510718108361], [-2.19749952293985, 53.4512002382202], [-2.19741125995089, 53.4518479080006], [-2.19690465894625, 53.4519636276056], [-2.19586471328605, 53.4517496311447], [-2.19575654325737, 53.4525416492841], [-2.19515921262906, 53.4528479290953]]]}, "properties": {"LSOA21CD": "E01005238", "LSOA21NM": "Manchester 063D"}}, {"type": "Feature", "geometry": {"type": "Polygon", "coordinates": [[[-2.20356077891153, 53.4620176577174], [-2.20288196446775, 53.4612655800367], [-2.20249092930681, 53.4613830891639], [-2.20149072730196, 53.4600814600682], [-2.20379235972713, 53.4595202954529], [-2.2043978548895, 53.4598208792317], [-2.20444416409997, 53.4598228227338], [-2.20722663004861, 53.4612276315677], [-2.20797064252425, 53.4616170052757], [-2.21003841720722, 53.4627846577056], [-2.21316904119925, 53.4645486450385], [-2.21353127613698, 53.464765267072], [-2.21167399052719, 53.4659180783242], [-2.20997853371138, 53.466139582873], [-2.20766574756702, 53.4662371732079], [-2.20745305366994, 53.4663077716837], [-2.20424115745865, 53.4632230914947], [-2.20320821794963, 53.4621651223497], [-2.20357561924562, 53.4620340983164], [-2.20356077891153, 53.4620176577174]]]}, "properties": {"LSOA21CD": "E01005239", "LSOA21NM": "Manchester 020E"}}, {"type": "Feature", "geometry": {"type": "Polygon", "coordinates": [[[-2.18658157311204, 53.4501016917553], [-2.18662384257914, 53.4498968509232], [-2.18749093686723, 53.4499222999909], [-2.18779654568596, 53.4493406078201], [-2.18869048267479, 53.4492488775951], [-2.19042112634857, 53.449077207867], [-2.18997619483317, 53.4480007471152], [-2.18929007175161, 53.4481363615093], [-2.18917649904698, 53.4478954597278], [-2.18905458830296, 53.447630686998], [-2.19098090509215, 53.4472972320452], [-2.19074492483847, 53.4466341652011], [-2.19110258946412, 53.4465239414774], [-2.19015756337595, 53.4463422709437], [-2.19049219877062, 53.4462539007765], [-2.19143543615805, 53.4460156588424], [-2.19205113833774, 53.4486107328646], [-2.19217386951349, 53.4489701617898], [-2.19061231378481, 53.4490563649588], [-2.19125661698642, 53.4494016013057], [-2.19114948208284, 53.4500598883274], [-2.19020317620189, 53.4500436888024], [-2.19018095659611, 53.4502398069326], [-2.18805184720317, 53.4504722554028], [-2.18815748247415, 53.4501621106648], [-2.18658157311204, 53.4501016917553]]]}, "properties": {"LSOA21CD": "E01034138", "LSOA21NM": "Manchester 064B"}}]}